{
    "links": {
        "self": "http://www.neowsapp.com/rest/v1/neo/3843679?api_key=iIulBulltgU6a56xZRHN4H3l9WmuAYTsLGpBGhQ2"
    },
    "id": "3843679",
    "neo_reference_id": "3843679",
    "name": "(2019 QO5)",
    "designation": "2019 QO5",
    "nasa_jpl_url": "http://ssd.jpl.nasa.gov/sbdb.cgi?sstr=3843679",
    "absolute_magnitude_h": 23.8,
    "estimated_diameter": {
        "kilometers": {
            "estimated_diameter_min": 0.046190746,
            "estimated_diameter_max": 0.1032856481
        },
        "meters": {
            "estimated_diameter_min": 46.1907460282,
            "estimated_diameter_max": 103.2856480504
        },
        "miles": {
            "estimated_diameter_min": 0.0287015901,
            "estimated_diameter_max": 0.0641787064
        },
        "feet": {
            "estimated_diameter_min": 151.544447199,
            "estimated_diameter_max": 338.8636855496
        }
    },
    "is_potentially_hazardous_asteroid": false,
    "close_approach_data": [
        {
            "close_approach_date": "1947-08-17",
            "close_approach_date_full": "1947-Aug-17 19:03",
            "epoch_date_close_approach": -706078620000,
            "relative_velocity": {
                "kilometers_per_second": "17.4647199799",
                "kilometers_per_hour": "62872.9919277376",
                "miles_per_hour": "39066.8321230989"
            },
            "miss_distance": {
                "astronomical": "0.2705146253",
                "lunar": "105.2301892417",
                "kilometers": "40468411.748728111",
                "miles": "25145905.0295494918"
            },
            "orbiting_body": "Earth"
        },
        {
            "close_approach_date": "2019-09-17",
            "close_approach_date_full": "2019-Sep-17 16:59",
            "epoch_date_close_approach": 1568739540000,
            "relative_velocity": {
                "kilometers_per_second": "10.6286973471",
                "kilometers_per_hour": "38263.3104496666",
                "miles_per_hour": "23775.3330957942"
            },
            "miss_distance": {
                "astronomical": "0.0652919833",
                "lunar": "25.3985815037",
                "kilometers": "9767541.629755571",
                "miles": "6069268.9329900398"
            },
            "orbiting_body": "Earth"
        }
    ],
    "orbital_data": {
        "orbit_id": "7",
        "orbit_determination_date": "2019-10-14 05:45:16",
        "first_observation_date": "2019-08-28",
        "last_observation_date": "2019-09-12",
        "data_arc_in_days": 15,
        "observations_used": 56,
        "orbit_uncertainty": "8",
        "minimum_orbit_intersection": ".0349307",
        "jupiter_tisserand_invariant": "3.158",
        "epoch_osculation": "2458727.5",
        "eccentricity": ".5957147182747194",
        "semi_major_axis": "2.531525726735702",
        "inclination": "10.29767396891471",
        "ascending_node_longitude": "179.0301747976322",
        "orbital_period": "1471.200774266618",
        "perihelion_distance": "1.023458591628139",
        "perihelion_argument": "198.210407453889",
        "aphelion_distance": "4.039592861843265",
        "perihelion_time": "2458761.348741295349",
        "mean_anomaly": "351.7172781040711",
        "mean_motion": ".2446980767662097",
        "equinox": "J2000",
        "orbit_class": {
            "orbit_class_type": "AMO",
            "orbit_class_description": "Near-Earth asteroid orbits similar to that of 1221 Amor",
            "orbit_class_range": "1.017 AU < q (perihelion) < 1.3 AU"
        }
    },
    "is_sentry_object": false
}